      2.10          N: GNSS NAV DATA                        RINEX VERSION / TYPE
fic2rin                                 07/30/2023 00:17:49 PGM / RUN BY / DATE
                                                            END OF HEADER
6  23  7 29  1 59 44.0  .573085155338D-03 -.432009983342D-11  .000000000000D+00
     .310000000000D+02 -.497187500000D+02  .375908515241D-08  .224817246854D+01
    -.249780714512D-05  .267734157387D-02  .202469527721D-05  .515371293831D+04
     .525584000000D+06 -.353902578354D-07  .125702071141D+01  .186264514923D-08
     .989175796605D+00  .355218750000D+03 -.763790389381D+00 -.791640117846D-08
    -.507163982558D-10  .100000000000D+01  .227200000000D+04  .000000000000D+00
     .240000000000D+01  .000000000000D+00  .372529029846D-08  .310000000000D+02
     .518400000000D+06  .400000000000D+01
28 23  7 29  4  0  0.0  .802571885288D-04 -.227373675443D-11  .000000000000D+00
     .161000000000D+03  .112500000000D+01  .499770817461D-08  .997209561918D+00
     .141561031342D-06  .634356867522D-03  .671111047268D-05  .515370918274D+04
     .532800000000D+06 -.521540641785D-07 -.192919879069D+01  .298023223877D-07
     .961156867493D+00  .250812500000D+03  .163417679322D+01 -.802426281418D-08
    -.985755346381D-10  .100000000000D+01  .227200000000D+04  .000000000000D+00
     .240000000000D+01  .000000000000D+00 -.977888703346D-08  .417000000000D+03
     .525600000000D+06  .400000000000D+01
23 23  7 29  4  0  0.0  .485694035888D-04  .443378667114D-11  .000000000000D+00
     .146000000000D+03 -.108750000000D+03  .387873299337D-08  .224375202750D+01
    -.565685331821D-05  .342785019893D-02  .843219459057D-05  .515367329407D+04
     .532800000000D+06 -.391155481339D-07  .226559653530D+01 -.558793544769D-08
     .974780068280D+00  .220375000000D+03 -.310427698980D+01 -.771675000504D-08
     .119647840956D-09  .100000000000D+01  .227200000000D+04  .000000000000D+00
     .240000000000D+01  .000000000000D+00 -.838190317154D-08  .914000000000D+03
     .525600000000D+06  .400000000000D+01
22 23  7 29  4  0  0.0  .519449822605D-03  .534328137292D-11  .000000000000D+00
     .870000000000D+02 -.609375000000D+01  .468948104999D-08 -.115402638224D+01
     .819563865662D-07  .143779212376D-01  .838935375214D-05  .515365366554D+04
     .532800000000D+06 -.614672899246D-07 -.285864771488D+01  .368803739548D-06
     .963268937915D+00  .222031250000D+03 -.179823391404D+01 -.799283293357D-08
     .584310053145D-09  .100000000000D+01  .227200000000D+04  .000000000000D+00
     .340000000000D+01  .630000000000D+02 -.838190317154D-08  .870000000000D+02
     .525600000000D+06  .400000000000D+01
22 23  7 29  3 59 44.0  .519452150911D-03  .534328137292D-11  .000000000000D+00
     .100000000000D+01 -.609375000000D+01  .468948104999D-08 -.115636032175D+01
     .819563865662D-07  .143779229838D-01  .838935375214D-05  .515365367317D+04
     .532784000000D+06 -.614672899246D-07 -.285864759200D+01  .368803739548D-06
     .963268933526D+00  .222031250000D+03 -.179823368729D+01 -.799283293357D-08
     .584310053145D-09  .100000000000D+01  .227200000000D+04  .000000000000D+00
     .240000000000D+01  .630000000000D+02 -.838190317154D-08  .100000000000D+01
     .529200000000D+06  .400000000000D+01
26 23  7 29  3 59 44.0  .234932173043D-03 -.136424205266D-11  .000000000000D+00
     .530000000000D+02  .547812500000D+02  .521950312754D-08  .839808548666D+00
     .310689210892D-05  .800648890436D-02  .924989581108D-05  .515372787094D+04
     .532784000000D+06  .540167093277D-07 -.917202953985D+00  .409781932831D-07
     .933181022781D+00  .184093750000D+03  .461288892614D+00 -.829320258803D-08
    -.622525930704D-09  .100000000000D+01  .227200000000D+04  .000000000000D+00
     .240000000000D+01  .000000000000D+00  .698491930962D-08  .530000000000D+02
     .529230000000D+06  .400000000000D+01
14 23  7 29  5 14 40.0  .137147027999D-03  .118234311230D-10  .000000000000D+00
     .330000000000D+02  .748125000000D+02  .476305554324D-08  .232371997050D+01
     .390596687794D-05  .343090482056D-02  .105816870928D-04  .515368322563D+04
     .537280000000D+06 -.143423676491D-06 -.817000783911D+00  .521540641785D-07
     .948084310534D+00  .169437500000D+03 -.295992543111D+01 -.795318842508D-08
    -.458590530708D-09  .100000000000D+01  .227200000000D+04  .000000000000D+00
     .240000000000D+01  .000000000000D+00 -.791624188423D-08  .289000000000D+03
     .530100000000D+06  .400000000000D+01
18 23  7 29  5 29 36.0 -.362972728908D-03 -.138697942020D-10  .000000000000D+00
     .930000000000D+02 -.429687500000D+02  .417695970142D-08 -.221991739812D+01
    -.227242708206D-05  .351915811189D-02  .184960663319D-05  .515366763687D+04
     .538176000000D+06 -.335276126862D-07  .126533830770D+01 -.279396772385D-07
     .973878881484D+00  .350531250000D+03  .313090425519D+01 -.814641075928D-08
    -.996470078407D-10  .100000000000D+01  .227200000000D+04  .000000000000D+00
     .240000000000D+01  .000000000000D+00 -.838190317154D-08  .605000000000D+03
     .531000000000D+06  .400000000000D+01
7  23  7 29  4  0  0.0  .111480709165D-03 -.110276232590D-10  .000000000000D+00
     .600000000000D+02 -.237500000000D+01  .514521431883D-08  .243293115145D+01
    -.322237610817D-06  .175042365445D-01  .654533505440D-05  .515372394180D+04
     .532800000000D+06  .223517417908D-07 -.189258803983D+01 -.344589352608D-06
     .949989792054D+00  .249031250000D+03 -.217925746410D+01 -.787104214621D-08
    -.158935191717D-09  .100000000000D+01  .227200000000D+04  .000000000000D+00
     .240000000000D+01  .000000000000D+00 -.111758708954D-07  .600000000000D+02
     .531060000000D+06  .400000000000D+01
26 23  7 29  5 59 44.0  .234922394156D-03 -.136424205266D-11  .000000000000D+00
     .550000000000D+02  .471562500000D+02  .520735976458D-08  .188984541953D+01
     .258348882198D-05  .800632021856D-02  .963360071182D-05  .515372952271D+04
     .539984000000D+06 -.184401869774D-06 -.917263534885D+00  .141561031342D-06
     .933177355245D+00  .181343750000D+03  .461405479870D+00 -.820034157714D-08
    -.428946438769D-09  .100000000000D+01  .227200000000D+04  .000000000000D+00
     .240000000000D+01  .000000000000D+00  .698491930962D-08  .550000000000D+02
     .532800000000D+06  .400000000000D+01
22 23  7 29  5 59 44.0  .519490335137D-03  .534328137292D-11  .000000000000D+00
     .140000000000D+02 -.550000000000D+01  .462590697331D-08 -.106157272162D+00
    -.419095158577D-06  .143779825885D-01  .847317278385D-05  .515365392303D+04
     .539984000000D+06 -.214204192162D-06 -.285870624770D+01  .158324837685D-06
     .963272830740D+00  .223218750000D+03 -.179824243700D+01 -.812819571483D-08
     .605025201728D-09  .100000000000D+01  .227200000000D+04  .000000000000D+00
     .240000000000D+01  .630000000000D+02 -.838190317154D-08  .140000000000D+02
     .532800000000D+06  .400000000000D+01
2  23  7 29  6  0  0.0 -.571274198592D-03  .397903932026D-11  .000000000000D+00
     .790000000000D+02 -.393125000000D+02  .451733102211D-08  .545301583211D+00
    -.218860805035D-05  .159358435776D-01  .184029340744D-05  .515354844856D+04
     .540000000000D+06 -.169500708580D-06  .116522141843D+01 -.188127160072D-06
     .967397266402D+00  .355718750000D+03 -.136358014268D+01 -.862571643857D-08
    -.289654922433D-09  .100000000000D+01  .227200000000D+04  .000000000000D+00
     .240000000000D+01  .000000000000D+00 -.176951289177D-07  .790000000000D+02
     .532800000000D+06  .400000000000D+01
1  23  7 29  6  0  0.0  .170805957168D-03 -.170530256582D-11  .000000000000D+00
     .490000000000D+02 -.672812500000D+02  .377515725045D-08 -.213422711938D+01
    -.329129397869D-05  .129317961400D-01  .156834721565D-05  .515364418030D+04
     .540000000000D+06  .949949026108D-07  .126524373005D+01 -.800937414169D-07
     .989981184210D+00  .363718750000D+03  .989757303616D+00 -.787747098543D-08
    -.128576784311D-09  .100000000000D+01  .227200000000D+04  .000000000000D+00
     .340000000000D+01  .630000000000D+02  .465661287308D-08  .490000000000D+02
     .532800000000D+06  .400000000000D+01
5  23  7 29  6  0  0.0 -.136713497341D-03 -.147792889038D-11  .000000000000D+00
     .660000000000D+02 -.118718750000D+03  .403088218814D-08  .428352999285D+00
    -.602565705776D-05  .606231170241D-02  .782497227192D-05  .515370763397D+04
     .540000000000D+06 -.175088644028D-06  .224829105414D+01  .372529029846D-08
     .966932860132D+00  .235468750000D+03  .119338377789D+01 -.782996900678D-08
     .325013538118D-10  .100000000000D+01  .227200000000D+04  .000000000000D+00
     .240000000000D+01  .000000000000D+00 -.111758708954D-07  .660000000000D+02
     .532800000000D+06  .400000000000D+01
3  23  7 29  6  0  0.0 -.212173443288D-03  .167119651451D-10  .000000000000D+00
     .147000000000D+03 -.130687500000D+03  .359657838335D-08  .296462875954D+01
    -.667758285999D-05  .506142911036D-02  .924244523048D-05  .515363506317D+04
     .540000000000D+06  .149011611938D-07  .229568506779D+01  .447034835815D-07
     .979943140668D+00  .209531250000D+03  .107633033199D+01 -.751245578108D-08
     .168221292806D-09  .100000000000D+01  .227200000000D+04  .000000000000D+00
     .240000000000D+01  .000000000000D+00  .186264514923D-08  .147000000000D+03
     .532800000000D+06  .400000000000D+01
4  23  7 29  6  0  0.0  .109480228275D-03  .111413100967D-10  .000000000000D+00
     .236000000000D+03 -.125625000000D+02  .447482925174D-08 -.352924135587D+00
    -.543892383575D-06  .246661365964D-02  .850856304169D-05  .515363559341D+04
     .540000000000D+06  .577419996262D-07 -.290721013779D+01  .353902578354D-07
     .963474665159D+00  .214593750000D+03 -.301120821309D+01 -.785568436364D-08
     .631454874059D-09  .100000000000D+01  .227200000000D+04  .000000000000D+00
     .240000000000D+01  .000000000000D+00 -.465661287308D-08  .748000000000D+03
     .532800000000D+06  .400000000000D+01
